{
  "type": "FeatureCollection",
  "features": [
    {
      "type": "Feature",
      "properties": {
        "name": "Sénégal",
        "iso_a3": "SEN",
        "source": "Natural Earth"
      },
      "geometry": {
        "type": "Polygon",
        "coordinates": [
          [
            [
              -16.71372880702347,
              13.594958604379855
            ],
            [
              -17.126106736712615,
              14.373515733289224
            ],
            [
              -17.62504269049066,
              14.729540513564073
            ],
            [
              -17.18517289882223,
              14.919477240452862
            ],
            [
              -16.700706346085923,
              15.621527411354108
            ],
            [
              -16.463098110407884,
              16.13503611903846
            ],
            [
              -16.12069007004193,
              16.455662543193384
            ],
            [
              -15.623666144258692,
              16.369337063049812
            ],
            [
              -15.135737270558819,
              16.587282416240782
            ],
            [
              -14.577347581428981,
              16.59826365810281
            ],
            [
              -14.099521450242179,
              16.304302273010492
            ],
            [
              -13.435737677453062,
              16.03938304286619
            ],
            [
              -12.830658331747516,
              15.303691514542948
            ],
            [
              -12.170750291380301,
              14.616834214735505
            ],
            [
              -12.12488745772126,
              13.994727484589788
            ],
            [
              -11.927716030311615,
              13.422075100147396
            ],
            [
              -11.55339779300543,
              13.141213690641067
            ],
            [
              -11.467899135778524,
              12.754518947800975
            ],
            [
              -11.51394283695059,
              12.442987575729418
            ],
            [
              -11.658300950557932,
              12.386582749882836
            ],
            [
              -12.203564825885634,
              12.465647691289405
            ],
            [
              -12.27859900557344,
              12.354440008997287
            ],
            [
              -12.499050665730564,
              12.332089952031057
            ],
            [
              -13.217818162478238,
              12.575873521367967
            ],
            [
              -13.700476040084325,
              12.586182969610194
            ],
            [
              -15.54847693527401,
              12.628170070847347
            ],
            [
              -15.816574266004254,
              12.515567124883347
            ],
            [
              -16.147716844130585,
              12.547761542201187
            ],
            [
              -16.677451951554573,
              12.384851589401052
            ],
            [
              -16.841524624081273,
              13.15139394780256
            ],
            [
              -15.931295945692211,
              13.130284125211332
            ],
            [
              -15.691000535534995,
              13.270353094938457
            ],
            [
              -15.511812506562933,
              13.278569647672867
            ],
            [
              -15.141163295949468,
              13.509511623585238
            ],
            [
              -14.712197231494628,
              13.298206691943777
            ],
            [
              -14.277701788784555,
              13.280585028532244
            ],
            [
              -13.844963344772408,
              13.505041612192002
            ],
            [
              -14.046992356817482,
              13.79406789800045
            ],
            [
              -14.376713833055788,
              13.625680243377374
            ],
            [
              -14.687030808968487,
              13.630356960499784
            ],
            [
              -15.08173539881382,
              13.876491807505985
            ],
            [
              -15.39877031092446,
              13.86036876063092
            ],
            [
              -15.624596320039942,
              13.62358734786956
            ],
            [
              -16.71372880702347,
              13.594958604379855
            ]
          ]
        ]
      }
    },
    {
      "type": "Feature",
      "properties": {
        "name": "Mali",
        "iso_a3": "MLI",
        "source": "Natural Earth"
      },
      "geometry": {
        "type": "Polygon",
        "coordinates": [
          [
            [
              -11.51394283695059,
              12.442987575729418
            ],
            [
              -11.467899135778524,
              12.754518947800975
            ],
            [
              -11.55339779300543,
              13.141213690641067
            ],
            [
              -11.927716030311615,
              13.422075100147396
            ],
            [
              -12.12488745772126,
              13.994727484589788
            ],
            [
              -12.170750291380301,
              14.616834214735505
            ],
            [
              -11.834207526079467,
              14.79909699142894
            ],
            [
              -11.666078253617854,
              15.388208319556298
            ],
            [
              -11.349095017939504,
              15.411256008358478
            ],
            [
              -10.650791388379417,
              15.132745876521426
            ],
            [
              -10.086846482778213,
              15.330485744686271
            ],
            [
              -9.700255092802706,
              15.264107367407362
            ],
            [
              -9.55023840985939,
              15.486496893775438
            ],
            [
              -5.537744309908447,
              15.501689764869257
            ],
            [
              -5.315277268891933,
              16.20185374599184
            ],
            [
              -5.488522508150439,
              16.325102037007966
            ],
            [
              -5.9711287093242476,
              20.64083344164763
            ],
            [
              -6.453786586930335,
              24.956590684503425
            ],
            [
              -4.923337368174231,
              24.974574082941
            ],
            [
              -1.5500548974576134,
              22.792665920497384
            ],
            [
              1.8232275732590324,
              20.610809434486043
            ],
            [
              2.06099083823392,
              20.142233384679486
            ],
            [
              2.683588494486429,
              19.856230170160117
            ],
            [
              3.1466610042539003,
              19.693578599521445
            ],
            [
              3.158133172222705,
              19.057364203360038
            ],
            [
              4.267419467800039,
              19.155265204337
            ],
            [
              4.2702099951438015,
              16.852227484601215
            ],
            [
              3.7234216650634835,
              16.184283759012615
            ],
            [
              3.6382589046464773,
              15.568119818580456
            ],
            [
              2.749992709981484,
              15.409524847876696
            ],
            [
              1.3855281917468576,
              15.323561102759172
            ],
            [
              1.0157833186984817,
              14.96818227788799
            ],
            [
              0.3748922054146817,
              14.92890818934613
            ],
            [
              -0.2662572900305804,
              14.924308986872148
            ],
            [
              -0.5158544580003479,
              15.116157741755728
            ],
            [
              -1.0663634912056636,
              14.973815009007765
            ],
            [
              -2.001035122068771,
              14.559008287000893
            ],
            [
              -2.1918245100903846,
              14.246417548067356
            ],
            [
              -2.9676944645205765,
              13.79815033615151
            ],
            [
              -3.1037068343127596,
              13.541266791228594
            ],
            [
              -3.522802700199861,
              13.337661647998615
            ],
            [
              -4.006390753587226,
              13.472485459848116
            ],
            [
              -4.28040503581488,
              13.228443508349741
            ],
            [
              -4.427166103523803,
              12.542645575404295
            ],
            [
              -5.220941941743121,
              11.713858954307227
            ],
            [
              -5.1978425765086484,
              11.37514577885014
            ],
            [
              -5.470564947929006,
              10.951269842976048
            ],
            [
              -5.404341599946974,
              10.370736802609146
            ],
            [
              -5.816926235365287,
              10.222554633012194
            ],
            [
              -6.050452032892267,
              10.096360785355444
            ],
            [
              -6.205222947606431,
              10.524060777219134
            ],
            [
              -6.493965013037268,
              10.411302801958271
            ],
            [
              -6.666460944027548,
              10.430810655148449
            ],
            [
              -6.8505065576350574,
              10.138993841996239
            ],
            [
              -7.622759161804809,
              10.147236232946796
            ],
            [
              -7.899589809592372,
              10.297382106970828
            ],
            [
              -8.029943610048619,
              10.206534939001713
            ],
            [
              -8.33537716310974,
              10.494811916541934
            ],
            [
              -8.282357143578281,
              10.792597357623846
            ],
            [
              -8.407310756860028,
              10.909256903522762
            ],
            [
              -8.620321010767128,
              10.810890814655183
            ],
            [
              -8.581305304386774,
              11.136245632364805
            ],
            [
              -8.376304897484914,
              11.393645941610629
            ],
            [
              -8.786099005559464,
              11.812560939984706
            ],
            [
              -8.90526485842453,
              12.088358059126437
            ],
            [
              -9.127473517279583,
              12.308060411015333
            ],
            [
              -9.327616339546012,
              12.334286200403454
            ],
            [
              -9.567911749703214,
              12.194243068892476
            ],
            [
              -9.890992804392013,
              12.060478623904972
            ],
            [
              -10.165213792348837,
              11.844083563682744
            ],
            [
              -10.593223842806282,
              11.92397532800598
            ],
            [
              -10.870829637078215,
              12.17788747807211
            ],
            [
              -11.03655595543826,
              12.211244615116515
            ],
            [
              -11.297573614944511,
              12.077971096235771
            ],
            [
              -11.456168585648271,
              12.076834214725338
            ],
            [
              -11.51394283695059,
              12.442987575729418
            ]
          ]
        ]
      }
    },
    {
      "type": "Feature",
      "properties": {
        "name": "Mauritanie",
        "iso_a3": "MRT",
        "source": "Natural Earth"
      },
      "geometry": {
        "type": "Polygon",
        "coordinates": [
          [
            [
              -17.06342322434257,
              20.999752102130827
            ],
            [
              -16.845193650773993,
              21.33332347257488
            ],
            [
              -12.929101935263532,
              21.327070624267563
            ],
            [
              -13.118754441774712,
              22.771220201096256
            ],
            [
              -12.874221564169575,
              23.284832261645178
            ],
            [
              -11.937224493853321,
              23.374594224536168
            ],
            [
              -11.96941891117116,
              25.933352769468268
            ],
            [
              -8.6872936670174,
              25.881056219988906
            ],
            [
              -8.684399786809053,
              27.395744126896005
            ],
            [
              -4.923337368174231,
              24.974574082941
            ],
            [
              -6.453786586930335,
              24.956590684503425
            ],
            [
              -5.9711287093242476,
              20.64083344164763
            ],
            [
              -5.488522508150439,
              16.325102037007966
            ],
            [
              -5.315277268891933,
              16.20185374599184
            ],
            [
              -5.537744309908447,
              15.501689764869257
            ],
            [
              -9.55023840985939,
              15.486496893775438
            ],
            [
              -9.700255092802706,
              15.264107367407362
            ],
            [
              -10.086846482778213,
              15.330485744686271
            ],
            [
              -10.650791388379417,
              15.132745876521426
            ],
            [
              -11.349095017939504,
              15.411256008358478
            ],
            [
              -11.666078253617854,
              15.388208319556298
            ],
            [
              -11.834207526079467,
              14.79909699142894
            ],
            [
              -12.170750291380301,
              14.616834214735505
            ],
            [
              -12.830658331747516,
              15.303691514542948
            ],
            [
              -13.435737677453062,
              16.03938304286619
            ],
            [
              -14.099521450242179,
              16.304302273010492
            ],
            [
              -14.577347581428981,
              16.59826365810281
            ],
            [
              -15.135737270558819,
              16.587282416240782
            ],
            [
              -15.623666144258692,
              16.369337063049812
            ],
            [
              -16.12069007004193,
              16.455662543193384
            ],
            [
              -16.463098110407884,
              16.13503611903846
            ],
            [
              -16.549707810929064,
              16.673892116761962
            ],
            [
              -16.270551723688357,
              17.166962795474873
            ],
            [
              -16.14634741867485,
              18.108481553616656
            ],
            [
              -16.256883307347167,
              19.096715806550307
            ],
            [
              -16.37765112961327,
              19.593817246981985
            ],
            [
              -16.277838100641517,
              20.0925206568147
            ],
            [
              -16.536323614965468,
              20.567866319251493
            ],
            [
              -17.06342322434257,
              20.999752102130827
            ]
          ]
        ]
      }
    },
    {
      "type": "Feature",
      "properties": {
        "name": "Guinée",
        "iso_a3": "GIN",
        "source": "Natural Earth"
      },
      "geometry": {
        "type": "Polygon",
        "coordinates": [
          [
            [
              -13.700476040084325,
              12.586182969610194
            ],
            [
              -13.217818162478238,
              12.575873521367967
            ],
            [
              -12.499050665730564,
              12.332089952031057
            ],
            [
              -12.27859900557344,
              12.354440008997287
            ],
            [
              -12.203564825885634,
              12.465647691289405
            ],
            [
              -11.658300950557932,
              12.386582749882836
            ],
            [
              -11.51394283695059,
              12.442987575729418
            ],
            [
              -11.456168585648271,
              12.076834214725338
            ],
            [
              -11.297573614944511,
              12.077971096235771
            ],
            [
              -11.03655595543826,
              12.211244615116515
            ],
            [
              -10.870829637078215,
              12.17788747807211
            ],
            [
              -10.593223842806282,
              11.92397532800598
            ],
            [
              -10.165213792348837,
              11.844083563682744
            ],
            [
              -9.890992804392013,
              12.060478623904972
            ],
            [
              -9.567911749703214,
              12.194243068892476
            ],
            [
              -9.327616339546012,
              12.334286200403454
            ],
            [
              -9.127473517279583,
              12.308060411015333
            ],
            [
              -8.90526485842453,
              12.088358059126437
            ],
            [
              -8.786099005559464,
              11.812560939984706
            ],
            [
              -8.376304897484914,
              11.393645941610629
            ],
            [
              -8.581305304386774,
              11.136245632364805
            ],
            [
              -8.620321010767128,
              10.810890814655183
            ],
            [
              -8.407310756860028,
              10.909256903522762
            ],
            [
              -8.282357143578281,
              10.792597357623846
            ],
            [
              -8.33537716310974,
              10.494811916541934
            ],
            [
              -8.029943610048619,
              10.206534939001713
            ],
            [
              -8.229337124046822,
              10.1290202905639
            ],
            [
              -8.30961646161225,
              9.789531968622441
            ],
            [
              -8.07911373537435,
              9.376223863152035
            ],
            [
              -7.832100389019188,
              8.575704250518626
            ],
            [
              -8.20349890790088,
              8.455453192575447
            ],
            [
              -8.299048631208564,
              8.316443589710303
            ],
            [
              -8.221792364932199,
              8.123328762235573
            ],
            [
              -8.280703497744938,
              7.687179673692157
            ],
            [
              -8.439298468448698,
              7.686042792181738
            ],
            [
              -8.722123582382125,
              7.71167430259851
            ],
            [
              -8.926064622422004,
              7.309037380396376
            ],
            [
              -9.208786383490846,
              7.313920803247953
            ],
            [
              -9.40334815106975,
              7.526905218938907
            ],
            [
              -9.337279832384581,
              7.9285344507113535
            ],
            [
              -9.755342169625834,
              8.541055202666925
            ],
            [
              -10.016566534861255,
              8.428503933135232
            ],
            [
              -10.23009355309128,
              8.406205552601293
            ],
            [
              -10.505477260774668,
              8.348896389189605
            ],
            [
              -10.494315151399633,
              8.715540676300435
            ],
            [
              -10.654770473665891,
              8.977178452994195
            ],
            [
              -10.622395188835041,
              9.267910061068278
            ],
            [
              -10.839151984083301,
              9.688246161330369
            ],
            [
              -11.11748124840733,
              10.045872911006285
            ],
            [
              -11.917277390988659,
              10.046983954300558
            ],
            [
              -12.150338100625005,
              9.858571682164381
            ],
            [
              -12.425928514037565,
              9.835834051955956
            ],
            [
              -12.59671912276221,
              9.62018830000197
            ],
            [
              -12.71195756677308,
              9.342711696810767
            ],
            [
              -13.246550258832515,
              8.903048610871508
            ],
            [
              -13.685153977909792,
              9.49474376061346
            ],
            [
              -14.074044969122282,
              9.886166897008252
            ],
            [
              -14.33007585291237,
              10.015719712763968
            ],
            [
              -14.579698859098258,
              10.214467271358515
            ],
            [
              -14.693231980843505,
              10.656300767454042
            ],
            [
              -14.839553798877944,
              10.87657156009814
            ],
            [
              -15.130311245168173,
              11.040411688679526
            ],
            [
              -14.685687221728898,
              11.527823798056488
            ],
            [
              -14.382191534878729,
              11.509271958863692
            ],
            [
              -14.121406419317779,
              11.677117010947697
            ],
            [
              -13.900799729863776,
              11.678718980348748
            ],
            [
              -13.743160773157413,
              11.811269029177412
            ],
            [
              -13.828271857142125,
              12.142644151249044
            ],
            [
              -13.718743658899513,
              12.24718557377551
            ],
            [
              -13.700476040084325,
              12.586182969610194
            ]
          ]
        ]
      }
    }
  ]
}